P1_dp2                  
1 25852U 99037B 13130.84350436 -.00000077 00000-0 15012-3 0 966
2 25852 052.0023 051.2535 0001668 049.6249 354.2041 12.62268979638190
